[{"OBJECT_NAME":"STARLINK-4629","OBJECT_ID":"2022-125E","EPOCH":"2026-03-09T16:36:40.825152","MEAN_MOTION":15.08838312,"ECCENTRICITY":0.00014027,"INCLINATION":53.2155,"RA_OF_ASC_NODE":224.0272,"ARG_OF_PERICENTER":103.9356,"MEAN_ANOMALY":256.1792,"EPHEMERIS_TYPE":0,"CLASSIFICATION_TYPE":"U","NORAD_CAT_ID":53968,"ELEMENT_SET_NO":999,"REV_AT_EPOCH":18932,"BSTAR":0.00010577531,"MEAN_MOTION_DOT":1.396e-5,"MEAN_MOTION_DDOT":0},{"OBJECT_NAME":"SL-8 DEB","OBJECT_ID":"1976-098E","EPOCH":"2026-03-09T08:07:12.416160","MEAN_MOTION":15.06605169,"ECCENTRICITY":0.00102283,"INCLINATION":74.028,"RA_OF_ASC_NODE":26.283,"ARG_OF_PERICENTER":218.296,"MEAN_ANOMALY":294.2383,"EPHEMERIS_TYPE":0,"CLASSIFICATION_TYPE":"U","NORAD_CAT_ID":18504,"ELEMENT_SET_NO":999,"REV_AT_EPOCH":18055,"BSTAR":0.0011587434,"MEAN_MOTION_DOT":0.00017191,"MEAN_MOTION_DDOT":0}]
